[{"OBJECT_NAME":"STARLINK-35245","OBJECT_ID":"2025-207H","EPOCH":"2026-03-09T17:44:36.315744","MEAN_MOTION":15.056491,"ECCENTRICITY":8.519e-5,"INCLINATION":97.6029,"RA_OF_ASC_NODE":138.7863,"ARG_OF_PERICENTER":126.3755,"MEAN_ANOMALY":233.7551,"EPHEMERIS_TYPE":0,"CLASSIFICATION_TYPE":"U","NORAD_CAT_ID":65599,"ELEMENT_SET_NO":999,"REV_AT_EPOCH":2827,"BSTAR":0.00046077597,"MEAN_MOTION_DOT":6.594e-5,"MEAN_MOTION_DDOT":0},{"OBJECT_NAME":"SL-24 DEB","OBJECT_ID":"2006-029C","EPOCH":"2026-03-09T21:47:25.301472","MEAN_MOTION":13.35098468,"ECCENTRICITY":0.08212164,"INCLINATION":64.5748,"RA_OF_ASC_NODE":270.8752,"ARG_OF_PERICENTER":290.3345,"MEAN_ANOMALY":61.134,"EPHEMERIS_TYPE":0,"CLASSIFICATION_TYPE":"U","NORAD_CAT_ID":29256,"ELEMENT_SET_NO":999,"REV_AT_EPOCH":95739,"BSTAR":5.8382867e-5,"MEAN_MOTION_DOT":1.05e-6,"MEAN_MOTION_DDOT":0}]
